[
  {
    "c0": -82.578646,
    "c1": 35.578055,
    "org": "BattleCat Coffee Bar",
    "category": "Food and drink",
    "name": "BattleCat Coffee Bar",
    "city": "Asheville",
    "address": "373 Haywood Rd",
    "zip": 28806
  },
  {
    "c0": -82.5641339,
    "c1": 35.5810667,
    "org": "PennyCup Coffee Co",
    "category": "Food and drink",
    "name": "PennyCup Coffee Co",
    "city": "Asheville",
    "address": "362 Depot St #202",
    "zip": 28801
  },
  {
    "c0": -82.5500411,
    "c1": 35.5938278,
    "org": "PennyCup at the YMI",
    "category": "Food and drink",
    "name": "PennyCup at the YMI",
    "city": "Asheville",
    "address": "39 S Market St",
    "zip": 28801
  },
  {
    "c0": -82.610547,
    "c1": 35.5777679,
    "org": "Frostbite Ice Cream",
    "category": "Food and drink",
    "name": "Frostbite Ice Cream",
    "city": "Asheville",
    "address": "1475 Patton Ave",
    "zip": 28806
  },
  {
    "c0": -82.5527469,
    "c1": 35.6065055,
    "org": "Unification Tattoo Parlour",
    "category": "Arts and entertainment",
    "name": "Unification Tattoo Parlour",
    "city": "Asheville",
    "address": "211 Merrimon Ave #251",
    "zip": 28801
  },
  {
    "c0": -82.5558349,
    "c1": 35.5946263,
    "org": "Trade & Lore Coffee",
    "category": "Food and drink",
    "name": "Trade & Lore Coffee",
    "city": "Asheville",
    "address": "37 Wall St",
    "zip": 28801
  },
  {
    "c0": -81.6835445,
    "c1": 36.219076,
    "org": "Lost Province Brewing Co.",
    "category": "Brewery",
    "name": "Lost Province Brewing Co.",
    "city": "Boone",
    "address": "130 N Depot St",
    "zip": 28607
  },
  {
    "c0": -79.4282524,
    "c1": 36.0683413,
    "org": "Outlet Video & News",
    "category": "Shopping",
    "name": "Outlet Video & News",
    "city": "Burlington",
    "address": "2223 Maple Ave",
    "zip": 27215
  },
  {
    "c0": -82.6640525,
    "c1": 35.5453802,
    "org": "Hero Hunter Comics",
    "category": "Shopping",
    "name": "Hero Hunter Comics",
    "city": "Candler",
    "address": "1107 Smokey Park Hwy",
    "zip": 28715
  },
  {
    "c0": -77.8979285,
    "c1": 34.0457489,
    "org": "Flaming Amy's Burrito Barn",
    "category": "Food and drink",
    "name": "Flaming Amy's Burrito Barn",
    "city": "Carolina Beach",
    "address": "1140 N Lake Park Blvd",
    "zip": 28428
  },
  {
    "c0": -79.0726148,
    "c1": 35.9098546,
    "org": "Steel String Brewery",
    "category": "Brewery",
    "name": "Steel String Brewery",
    "city": "Carrboro",
    "address": "106 S Greensboro St",
    "zip": 27510
  },
  {
    "c0": -79.0762727,
    "c1": 35.9105296,
    "org": "Personalized Fitness",
    "category": "Health and wellness",
    "name": "Personalized Fitness",
    "city": "Carrboro",
    "address": "205 W Main St #102",
    "zip": 27510
  },
  {
    "c0": -79.067437,
    "c1": 35.9104584,
    "org": "Cameron's",
    "category": "Shopping",
    "name": "Cameron's",
    "city": "Carrboro",
    "address": "370 E Main St #130",
    "zip": 27510
  },
  {
    "c0": -79.0720496,
    "c1": 35.909795,
    "org": "Open Eye Cafe",
    "category": "Food and drink",
    "name": "Open Eye Cafe",
    "city": "Carrboro",
    "address": "101 S Greensboro St",
    "zip": 27510
  },
  {
    "c0": -79.0715629,
    "c1": 35.910692,
    "org": "Market Street Coffee",
    "category": "Food and drink",
    "name": "Market Street Coffee - Carrboro",
    "city": "Carrboro",
    "address": "100 E Weaver St",
    "zip": 27510
  },
  {
    "c0": -79.07152,
    "c1": 35.910683,
    "org": "The Beehive",
    "category": "Beauty and spas",
    "name": "The Beehive",
    "city": "Carrboro",
    "address": "102 E Weaver St",
    "zip": 27510
  },
  {
    "c0": -79.0816515,
    "c1": 35.9115942,
    "org": "Unorthodoc",
    "category": "Health and wellness",
    "name": "Unorthodoc",
    "city": "Carrboro",
    "address": "127 Fidelity St",
    "zip": 27510
  },
  {
    "c0": -79.0716049,
    "c1": 35.9110867,
    "org": "Weaver Street Market",
    "category": "Grocery",
    "name": "Weaver Street Market",
    "city": "Carrboro",
    "address": "101 E Weaver St",
    "zip": 27510
  },
  {
    "c0": -79.0708835,
    "c1": 35.9103912,
    "org": "Acme Food & Beverage Co",
    "category": "Food and drink",
    "name": "Acme Food & Beverage Co",
    "city": "Carrboro",
    "address": "110 E Main St",
    "zip": 27510
  },
  {
    "c0": -79.0554657,
    "c1": 35.9135734,
    "org": "Sup Dogs",
    "category": "Food and drink",
    "name": "Sup Dogs - Chapel Hill",
    "city": "Chapel Hill",
    "address": "107 E Franklin St",
    "zip": 27514
  },
  {
    "c0": -79.0625191,
    "c1": 35.9107463,
    "org": "The Cave",
    "category": "Arts and entertainment",
    "name": "The Cave",
    "city": "Chapel Hill",
    "address": "452 W Franklin St",
    "zip": 27516
  },
  {
    "c0": -79.064362,
    "c1": 35.9105269,
    "org": "Syd's Hair Shop Inc",
    "category": "Beauty and spas",
    "name": "Syd's Hair Shop Inc",
    "city": "Chapel Hill",
    "address": "106 N Graham St",
    "zip": 27516
  },
  {
    "c0": -79.0527733,
    "c1": 35.9144651,
    "org": "Linda's Bar & Grill",
    "category": "Food and drink",
    "name": "Linda's Bar & Grill",
    "city": "Chapel Hill",
    "address": "203 E Franklin St",
    "zip": 27514
  },
  {
    "c0": -79.0271967,
    "c1": 35.9327624,
    "org": "Market Street Coffee",
    "category": "Food and drink",
    "name": "Market Street Coffee - Elliott Rd",
    "city": "Chapel Hill",
    "address": "227 S Elliott Rd",
    "zip": 27514
  },
  {
    "c0": -79.0107771,
    "c1": 35.9054316,
    "org": "Market Street Coffee",
    "category": "Food and drink",
    "name": "Market Street Coffee - Meadowmont Village",
    "city": "Chapel Hill",
    "address": "503 Meadowmont Village Cir",
    "zip": 27517
  },
  {
    "c0": -79.0584895,
    "c1": 35.9495319,
    "org": "Market Street Coffee",
    "category": "Food and drink",
    "name": "Market Street Coffee - Homestead Rd",
    "city": "Chapel Hill",
    "address": "2805 Homestead Rd",
    "zip": 27516
  },
  {
    "c0": -79.062645,
    "c1": 35.911377,
    "org": "Nightlight",
    "category": "Arts and entertainment",
    "name": "Nightlight",
    "city": "Chapel Hill",
    "address": "405 W Rosemary St",
    "zip": 27516
  },
  {
    "c0": -79.0661679,
    "c1": 35.8801031,
    "org": "Weaver Street Market",
    "category": "Grocery",
    "name": "Weaver Street Market",
    "city": "Chapel Hill",
    "address": "716 Market St",
    "zip": 27516
  },
  {
    "c0": -79.062884,
    "c1": 35.909948,
    "org": "Vimala's Curryblossom Cafe",
    "category": "Food and drink",
    "name": "Vimala's Curryblossom Cafe",
    "city": "Chapel Hill",
    "address": "431 W Franklin St #415",
    "zip": 27516
  },
  {
    "c0": -79.0643315,
    "c1": 35.9104228,
    "org": "Beer Study",
    "category": "Food and drink",
    "name": "Beer Study",
    "city": "Chapel Hill",
    "address": "106 N Graham St",
    "zip": 27516
  },
  {
    "c0": -79.0337129,
    "c1": 35.9281218,
    "org": "Triangle Acupuncture Clinic",
    "category": "Health and wellness",
    "name": "Triangle Acupuncture Clinic",
    "city": "Chapel Hill",
    "address": "104 S Estes Dr",
    "zip": 27514
  },
  {
    "c0": -79.05659,
    "c1": 35.91047,
    "org": "North Carolina Hillel",
    "category": "Religious organization",
    "name": "North Carolina Hillel",
    "city": "Chapel Hill",
    "address": "210 W Cameron Ave",
    "zip": 27516
  },
  {
    "c0": -80.8153578,
    "c1": 35.2192376,
    "org": "The Dog Salon",
    "category": "Pets",
    "name": "The Dog Salon",
    "city": "Charlotte",
    "address": "1318 Central Ave",
    "zip": 28205
  },
  {
    "c0": -80.804725,
    "c1": 35.220085,
    "org": "Midwood Country Club",
    "category": "Food and drink",
    "name": "Midwood Country Club",
    "city": "Charlotte",
    "address": "2121 Central Ave",
    "zip": 28205
  },
  {
    "c0": -80.8043349,
    "c1": 35.2199741,
    "org": "The Station",
    "category": "Arts and entertainment",
    "name": "The Station",
    "city": "Charlotte",
    "address": "2131 Central Ave",
    "zip": 28205
  },
  {
    "c0": -80.8079829,
    "c1": 35.220328,
    "org": "Pure Pizza",
    "category": "Food and drink",
    "name": "Pure Pizza",
    "city": "Charlotte",
    "address": "1911 Central Ave",
    "zip": 28205
  },
  {
    "c0": -80.838113,
    "c1": 35.227619,
    "org": "Pure Pizza",
    "category": "Food and drink",
    "name": "Pure Pizza",
    "city": "Charlotte",
    "address": "224 E 7th St",
    "zip": 28202
  },
  {
    "c0": -80.8329348,
    "c1": 35.1887678,
    "org": "Queens University of Charlotte",
    "category": "Education",
    "name": "Queens University of Charlotte",
    "city": "Charlotte",
    "address": "1900 Selwyn Ave",
    "zip": 28207
  },
  {
    "c0": -80.804091,
    "c1": 35.247796,
    "org": "Salud Beer Shop",
    "category": "Food and drink",
    "name": "Salud Beer Shop",
    "city": "Charlotte",
    "address": "3306 N Davidson St",
    "zip": 28205
  },
  {
    "c0": -80.8040482,
    "c1": 35.2477994,
    "org": "FūD at Salud",
    "category": "Food and drink",
    "name": "FūD at Salud",
    "city": "Charlotte",
    "address": "3306 N Davidson St",
    "zip": 28205
  },
  {
    "c0": -80.849507,
    "c1": 35.166707,
    "org": "Pfeiffer University",
    "category": "Education",
    "name": "Pfeiffer University at Charlotte",
    "city": "Charlotte",
    "address": "4701 Park Rd",
    "zip": 28209
  },
  {
    "c0": -80.8304447,
    "c1": 35.2173949,
    "org": "Central Piedmont Community College",
    "category": "Education",
    "name": "Central Piedmont Community College",
    "city": "Charlotte",
    "address": "1201 Elizabeth Ave",
    "zip": 28204
  },
  {
    "c0": -80.8451966,
    "c1": 35.5000366,
    "org": "Davidson College",
    "category": "Education",
    "name": "Davidson College",
    "city": "Davidson",
    "address": "405 N Main St",
    "zip": 28035
  },
  {
    "c0": -78.9014677,
    "c1": 35.9953086,
    "org": "The Pinhook",
    "category": "Arts and entertainment",
    "name": "The Pinhook",
    "city": "Durham",
    "address": "117 W Main St",
    "zip": 27701
  },
  {
    "c0": -78.898619,
    "c1": 35.9940329,
    "org": "Moogfest",
    "category": "Arts and entertainment",
    "name": "Moogfest",
    "city": "Durham",
    "address": "",
    "zip": ""
  },
  {
    "c0": -78.9426613,
    "c1": 35.9701993,
    "org": "Pilgrim United Church of Christ",
    "category": "Religious organization",
    "name": "Pilgrim United Church of Christ",
    "city": "Durham",
    "address": "3011 Academy Rd",
    "zip": 27707
  },
  {
    "c0": -78.916603,
    "c1": 35.996435,
    "org": "Durham Coop Market",
    "category": "Grocery",
    "name": "Durham Coop Market",
    "city": "Durham",
    "address": "1111 W Chapel Hill St",
    "zip": 27701
  },
  {
    "c0": -78.9010705,
    "c1": 36.00396,
    "org": "Cocoa Cinnamon",
    "category": "Food and drink",
    "name": "Cocoa Cinnamon - Geer St",
    "city": "Durham",
    "address": "420 W Geer St",
    "zip": 27701
  },
  {
    "c0": -78.9301334,
    "c1": 36.0116636,
    "org": "Cocoa Cinnamon",
    "category": "Food and drink",
    "name": "Cocoa Cinnamon - Hillsborough Rd",
    "city": "Durham",
    "address": "2627 Hillsborough Rd",
    "zip": 27705
  },
  {
    "c0": -78.9389328,
    "c1": 35.9095152,
    "org": "Bean Traders",
    "category": "Food and drink",
    "name": "Bean Traders",
    "city": "Durham",
    "address": "105 W North Carolina 54 #249",
    "zip": 27713
  },
  {
    "c0": -78.8361246,
    "c1": 35.9475143,
    "org": "Frisky Business Boutique",
    "category": "Shopping",
    "name": "Frisky Business Boutique",
    "city": "Durham",
    "address": "1720 New Raleigh Hwy",
    "zip": 27703
  },
  {
    "c0": -78.9188929,
    "c1": 36.016502,
    "org": "Oval Park Grille",
    "category": "Food and drink",
    "name": "Oval Park Grille",
    "city": "Durham",
    "address": "1116 Broad St",
    "zip": 27701
  },
  {
    "c0": -78.9218719,
    "c1": 36.0084038,
    "org": "Blue Corn Cafe",
    "category": "Food and drink",
    "name": "Blue Corn Cafe",
    "city": "Durham",
    "address": "716 9th St",
    "zip": 27705
  },
  {
    "c0": -78.901588,
    "c1": 35.995306,
    "org": "Global Breath Studio",
    "category": "Health and wellness",
    "name": "Global Breath Studio",
    "city": "Durham",
    "address": "119 W Main St #300",
    "zip": 27701
  },
  {
    "c0": -78.9215636,
    "c1": 36.013911,
    "org": "Monuts Donuts",
    "category": "Food and drink",
    "name": "Monuts Donuts",
    "city": "Durham",
    "address": "1002 9th St",
    "zip": 27705
  },
  {
    "c0": -78.9218712,
    "c1": 36.0093088,
    "org": "Metro 8 Steakhouse",
    "category": "Food and drink",
    "name": "Metro 8 Steakhouse",
    "city": "Durham",
    "address": "746 9th St",
    "zip": 27705
  },
  {
    "c0": -78.9029143,
    "c1": 35.9966967,
    "org": "Ninth Street Bakery",
    "category": "Food and drink",
    "name": "Ninth Street Bakery",
    "city": "Durham",
    "address": "136 E Chapel Hill St",
    "zip": 27701
  },
  {
    "c0": -78.8902843,
    "c1": 35.9902072,
    "org": "The Shed Jazz Club",
    "category": "Arts and entertainment",
    "name": "The Shed Jazz Club",
    "city": "Durham",
    "address": "807 E Main St",
    "zip": 27701
  },
  {
    "c0": -78.9008447,
    "c1": 35.9955902,
    "org": "The Carrack ",
    "category": "Arts and entertainment",
    "name": "The Carrack ",
    "city": "Durham",
    "address": "111 W Parrish St",
    "zip": 27701
  },
  {
    "c0": -78.8902959,
    "c1": 35.9901406,
    "org": "Dogstar Tattoo Company",
    "category": "Arts and entertainment",
    "name": "Dogstar Tattoo Company",
    "city": "Durham",
    "address": "807 E Main St",
    "zip": 27701
  },
  {
    "c0": -78.9633962,
    "c1": 35.9659346,
    "org": "Atomic Empire",
    "category": "Shopping",
    "name": "Atomic Empire",
    "city": "Durham",
    "address": "3400 Westgate Dr",
    "zip": 27707
  },
  {
    "c0": -78.919709,
    "c1": 36.013986,
    "org": "1005 Wellness Center",
    "category": "Health and wellness",
    "name": "1005 Wellness Center",
    "city": "Durham",
    "address": "1005 Broad St",
    "zip": 27705
  },
  {
    "c0": -78.9549282,
    "c1": 35.9782965,
    "org": "Judea Reform Congregation",
    "category": "Religious organization",
    "name": "Judea Reform Congregation",
    "city": "Durham",
    "address": "1933 W Cornwallis Rd",
    "zip": 27705
  },
  {
    "c0": -78.9008417,
    "c1": 35.9954828,
    "org": "Luna Rotisserie and Empanadas",
    "category": "Food and drink",
    "name": "Luna Rotisserie and Empanadas",
    "city": "Durham",
    "address": "112 W Main St",
    "zip": 27701
  },
  {
    "c0": -78.9382286,
    "c1": 36.0014258,
    "org": "Duke University",
    "category": "Education",
    "name": "Duke University",
    "city": "Durham",
    "address": "",
    "zip": 27708
  },
  {
    "c0": -78.89818,
    "c1": 36.001224,
    "org": "Durty Bull Brewing Co",
    "category": "Brewery",
    "name": "Durty Bull Brewing Co",
    "city": "Durham",
    "address": "206 Broadway St #104",
    "zip": 27701
  },
  {
    "c0": -78.8996359,
    "c1": 36.0030985,
    "org": "Fullsteam Brewery",
    "category": "Brewery",
    "name": "Fullsteam Brewery",
    "city": "Durham",
    "address": "726 Rigsbee Ave",
    "zip": 27701
  },
  {
    "c0": -78.8980928,
    "c1": 35.9933185,
    "org": "Old Havana Sandwich Shop",
    "category": "Food and drink",
    "name": "Old Havana Sandwich Shop",
    "city": "Durham",
    "address": "310 E Main St",
    "zip": 27701
  },
  {
    "c0": -78.90222,
    "c1": 35.996644,
    "org": "The Parlour",
    "category": "Food and drink",
    "name": "The Parlour",
    "city": "Durham",
    "address": "117 Market St",
    "zip": 27701
  },
  {
    "c0": -78.9199814,
    "c1": 36.0086343,
    "org": "American Dance Festival",
    "category": "Arts and entertainment",
    "name": "American Dance Festival",
    "city": "Durham",
    "address": "715 Broad St",
    "zip": 27705
  },
  {
    "c0": -78.8962889,
    "c1": 35.972982,
    "org": "North Carolina Central University",
    "category": "Education",
    "name": "North Carolina Central University",
    "city": "Durham",
    "address": "",
    "zip": ""
  },
  {
    "c0": -78.9044638,
    "c1": 35.993246,
    "org": "McKinney",
    "category": "Professional service",
    "name": "McKinney",
    "city": "Durham",
    "address": "318 Blackwell St",
    "zip": 27701
  },
  {
    "c0": -78.9189648,
    "c1": 36.015767,
    "org": "Joe Van Gogh Broad Street",
    "category": "Food and drink",
    "name": "Joe Van Gogh Broad Street",
    "city": "Durham",
    "address": "1104 Broad St",
    "zip": 27705
  },
  {
    "c0": -78.897839,
    "c1": 36.000278,
    "org": "LGBTQ Center of Durham",
    "category": "Community organization",
    "name": "LGBTQ Center of Durham",
    "city": "Durham",
    "address": "114 Hunt St",
    "zip": 27701
  },
  {
    "c0": -79.5043469,
    "c1": 36.1048739,
    "org": "Elon University",
    "category": "Education",
    "name": "Elon University",
    "city": "Elon",
    "address": "100 Campus Drive",
    "zip": 27244
  },
  {
    "c0": -82.4482806,
    "c1": 35.546103,
    "org": "Mountain Mojo",
    "category": "Food and drink",
    "name": "Mountain Mojo",
    "city": "Fairview",
    "address": "381 Old Charlotte Hwy",
    "zip": 28730
  },
  {
    "c0": -78.9498038,
    "c1": 35.0856666,
    "org": "Fort Video & News",
    "category": "Shopping",
    "name": "Fort Video & News",
    "city": "Fayetteville",
    "address": "4431 Bragg Blvd",
    "zip": 28303
  },
  {
    "c0": -83.3811156,
    "c1": 35.181255,
    "org": "Goshen Timber Frames",
    "category": "Professional service",
    "name": "Goshen Timber Frames",
    "city": "Franklin",
    "address": "37 Phillips St",
    "zip": 28734
  },
  {
    "c0": -79.790381,
    "c1": 36.0687771,
    "org": "Green Bean",
    "category": "Food and drink",
    "name": "Green Bean",
    "city": "Greensboro",
    "address": "341 S Elm St",
    "zip": 27401
  },
  {
    "c0": -79.8133482,
    "c1": 36.0921063,
    "org": "1618 Wine Lounge",
    "category": "Food and drink",
    "name": "1618 Wine Lounge",
    "city": "Greensboro",
    "address": "1724 Battleground Ave",
    "zip": 27408
  },
  {
    "c0": -79.8157336,
    "c1": 36.0955455,
    "org": "Geeksboro Coffeehouse Cinema",
    "category": "Arts and entertainment",
    "name": "Geeksboro Coffeehouse Cinema",
    "city": "Greensboro",
    "address": "2134 Lawndale Dr",
    "zip": 27408
  },
  {
    "c0": -79.7841677,
    "c1": 36.0704284,
    "org": "Interactive Resource Center",
    "category": "Community organization",
    "name": "Interactive Resource Center",
    "city": "Greensboro",
    "address": "407 E Washington St",
    "zip": 27401
  },
  {
    "c0": -79.816646,
    "c1": 36.0967849,
    "org": "Shelf Life Art   Supply Co.",
    "category": "Shopping",
    "name": "Shelf Life Art   Supply Co.",
    "city": "Greensboro",
    "address": "2178 Lawndale Dr",
    "zip": 27408
  },
  {
    "c0": -79.819587,
    "c1": 36.0933978,
    "org": "TLC Counseling",
    "category": "Health and wellness",
    "name": "TLC Counseling",
    "city": "Greensboro",
    "address": "1821 Lendew St",
    "zip": 27408
  },
  {
    "c0": -79.7907803,
    "c1": 36.0687587,
    "org": "Design Archives Emporium",
    "category": "Shopping",
    "name": "Design Archives Emporium",
    "city": "Greensboro",
    "address": "342 S Elm St",
    "zip": 27401
  },
  {
    "c0": -79.7933122,
    "c1": 36.0795576,
    "org": "Deep Roots Market",
    "category": "Grocery",
    "name": "Deep Roots Market",
    "city": "Greensboro",
    "address": "600 N Eugene St",
    "zip": 27401
  },
  {
    "c0": -79.7908096,
    "c1": 36.0699651,
    "org": "Scuppernong Books",
    "category": "Shopping",
    "name": "Scuppernong Books",
    "city": "Greensboro",
    "address": "304 S Elm St",
    "zip": 27401
  },
  {
    "c0": -79.761559,
    "c1": 36.087761,
    "org": "YWCA Greensboro",
    "category": "Community organization",
    "name": "YWCA Greensboro",
    "city": "Greensboro",
    "address": "1807 Wendover Ave E",
    "zip": 27405
  },
  {
    "c0": -79.8907564,
    "c1": 36.0963643,
    "org": "Guilford College",
    "category": "Education",
    "name": "Guilford College",
    "city": "Greensboro",
    "address": "5800 W Friendly Ave",
    "zip": 27410
  },
  {
    "c0": -79.78442,
    "c1": 36.1010459,
    "org": "Vida pour Tea",
    "category": "Food and drink",
    "name": "Vida pour Tea",
    "city": "Greensboro",
    "address": "412 State St",
    "zip": 27405
  },
  {
    "c0": -77.3710735,
    "c1": 35.6111139,
    "org": "Sup Dogs",
    "category": "Food and drink",
    "name": "Sup Dogs - Greenville",
    "city": "Greenville",
    "address": "213 E 5th St",
    "zip": 27858
  },
  {
    "c0": -77.3733952,
    "c1": 35.6113845,
    "org": "Starlight Cafe",
    "category": "Food and drink",
    "name": "Starlight Cafe",
    "city": "Greenville",
    "address": "104 W 5th St",
    "zip": 27858
  },
  {
    "c0": -77.3587773,
    "c1": 35.579782,
    "org": "Unitarian Universalist Congregation",
    "category": "Religious organization",
    "name": "Unitarian Universalist Congregation",
    "city": "Greenville",
    "address": "131 Oakmont Dr",
    "zip": 27858
  },
  {
    "c0": -77.373047,
    "c1": 35.611669,
    "org": "The Sojourner Whole Earth Provisions",
    "category": "Shopping",
    "name": "The Sojourner Whole Earth Provisions",
    "city": "Greenville",
    "address": "414 Evans St",
    "zip": 27858
  },
  {
    "c0": -77.4099442,
    "c1": 35.6042634,
    "org": "Happy Girls Bras & Breastfeeding",
    "category": "Shopping",
    "name": "Happy Girls Bras & Breastfeeding",
    "city": "Greenville",
    "address": "2301 Stantonsburg Rd",
    "zip": 27834
  },
  {
    "c0": -77.3725864,
    "c1": 35.6117572,
    "org": "Crave Restaurant and Bar",
    "category": "Food and drink",
    "name": "Crave Restaurant and Bar",
    "city": "Greenville",
    "address": "409 Evans St",
    "zip": 27858
  },
  {
    "c0": -80.003099,
    "c1": 35.944116,
    "org": "Market Video & News",
    "category": "Shopping",
    "name": "Market Video & News",
    "city": "High Point",
    "address": "1100 S Main St",
    "zip": 27260
  },
  {
    "c0": -83.233336,
    "c1": 35.042897,
    "org": "Lucas Patton Design",
    "category": "Professional service",
    "name": "Lucas Patton Design",
    "city": "Highlands",
    "address": "2252 Dillard Rd",
    "zip": 28741
  },
  {
    "c0": -79.113106,
    "c1": 36.070763,
    "org": "Mystery Brewing Company",
    "category": "Brewery",
    "name": "Mystery Brewing Company",
    "city": "Hillsborough",
    "address": "437 Dimmocks Mill Rd",
    "zip": 27278
  },
  {
    "c0": -79.0997334,
    "c1": 36.0735329,
    "org": "Weaver Street Market",
    "category": "Grocery",
    "name": "Weaver Street Market",
    "city": "Hillsborough",
    "address": "228 S Churton St",
    "zip": 27278
  },
  {
    "c0": -79.1110135,
    "c1": 36.072917,
    "org": "Mystery Brewing Public House",
    "category": "Brewery",
    "name": "Mystery Brewing Public House",
    "city": "Hillsborough",
    "address": "230 S Nash St",
    "zip": 27278
  },
  {
    "c0": -79.683077,
    "c1": 36.062621,
    "org": "Replacements, Ltd.",
    "category": "Shopping",
    "name": "Replacements, Ltd.",
    "city": "McLeansville",
    "address": "1089 Knox Rd",
    "zip": 27301
  },
  {
    "c0": -80.2804584,
    "c1": 35.4848823,
    "org": "Pfeiffer University",
    "category": "Education",
    "name": "Pfeiffer University",
    "city": "Misenheimer",
    "address": "48380 US-52",
    "zip": 28109
  },
  {
    "c0": -82.2993062,
    "c1": 35.6478067,
    "org": "Montreat Conference Center",
    "category": "Religious organization",
    "name": "Montreat Conference Center",
    "city": "Montreat",
    "address": "401 Assembly Dr",
    "zip": 28757
  },
  {
    "c0": -78.823276,
    "c1": 35.864173,
    "org": "Pfeiffer University",
    "category": "Education",
    "name": "Pfeiffer University - Morrisville",
    "city": "Morrisville",
    "address": "2880 Slater Rd",
    "zip": 27560
  },
  {
    "c0": -77.7463652,
    "c1": 35.0551638,
    "org": "Carolina Wild Juice",
    "category": "Grocery",
    "name": "Carolina Wild Juice",
    "city": "Pink Hill",
    "address": "",
    "zip": 28572
  },
  {
    "c0": -79.1812174,
    "c1": 35.7207635,
    "org": "Angelina's Kitchen",
    "category": "Food and drink",
    "name": "Angelina's Kitchen",
    "city": "Pittsboro",
    "address": "23 Rectory St",
    "zip": 27312
  },
  {
    "c0": -78.6368954,
    "c1": 35.7783054,
    "org": "The Remedy Diner",
    "category": "Food and drink",
    "name": "The Remedy Diner",
    "city": "Raleigh",
    "address": "137 E Hargett St",
    "zip": 27601
  },
  {
    "c0": -78.656054,
    "c1": 35.782886,
    "org": "The Green Monkey",
    "category": "Shopping",
    "name": "The Green Monkey",
    "city": "Raleigh",
    "address": "1217 Hillsborough St",
    "zip": 27603
  },
  {
    "c0": -78.6348201,
    "c1": 35.7903701,
    "org": "Edge of Urge - Raleigh",
    "category": "Shopping",
    "name": "Edge of Urge - Raleigh",
    "city": "Raleigh",
    "address": "215 E Franklin St #110",
    "zip": 27604
  },
  {
    "c0": -78.6447274,
    "c1": 35.7756518,
    "org": "Videri Chocolate Factory",
    "category": "Shopping",
    "name": "Videri Chocolate Factory",
    "city": "Raleigh",
    "address": "327 W Davie St",
    "zip": 27601
  },
  {
    "c0": -78.6774284,
    "c1": 35.7899851,
    "org": "Cup a Joe",
    "category": "Food and drink",
    "name": "Cup a Joe - Hillsborough St",
    "city": "Raleigh",
    "address": "3100 Hillsborough St",
    "zip": 27607
  },
  {
    "c0": -78.6758498,
    "c1": 35.7796411,
    "org": "Cup a Joe",
    "category": "Food and drink",
    "name": "Cup a Joe - Mission Valley",
    "city": "Raleigh",
    "address": "2109 Avent Ferry Rd",
    "zip": 27606
  },
  {
    "c0": -78.6955971,
    "c1": 35.766557,
    "org": "Talon Vapor",
    "category": "Shopping",
    "name": "Talon Vapor",
    "city": "Raleigh",
    "address": "3231 Avent Ferry Rd #103",
    "zip": 27606
  },
  {
    "c0": -78.6609831,
    "c1": 35.7851034,
    "org": "Pullen Memorial Baptist Church",
    "category": "Religious organization",
    "name": "Pullen Memorial Baptist Church",
    "city": "Raleigh",
    "address": "1801 Hillsborough St",
    "zip": 27605
  },
  {
    "c0": -78.6756362,
    "c1": 35.8007209,
    "org": "Community United Church of Christ",
    "category": "Religious organization",
    "name": "Community United Church of Christ",
    "city": "Raleigh",
    "address": "814 Dixie Trail",
    "zip": 27607
  },
  {
    "c0": -78.6799742,
    "c1": 35.8006413,
    "org": "Unitarian Universalist Fellowship of Raleigh",
    "category": "Religious organization",
    "name": "Unitarian Universalist Fellowship of Raleigh",
    "city": "Raleigh",
    "address": "3313 Wade Ave",
    "zip": 27607
  },
  {
    "c0": -78.639894,
    "c1": 35.775173,
    "org": "Ruby Deluxe",
    "category": "Food and drink",
    "name": "Ruby Deluxe",
    "city": "Raleigh",
    "address": "414 Fayetteville St",
    "zip": 27601
  },
  {
    "c0": -78.6453955,
    "c1": 35.7759848,
    "org": "LGBT Center of Raleigh",
    "category": "Community organization",
    "name": "LGBT Center of Raleigh",
    "city": "Raleigh",
    "address": "324 S Harrington St",
    "zip": 27603
  },
  {
    "c0": -78.7071208,
    "c1": 35.8162305,
    "org": "Triangle Acupuncture Clinic",
    "category": "Health and wellness",
    "name": "Triangle Acupuncture Clinic",
    "city": "Raleigh",
    "address": "2601 Lake Dr #103",
    "zip": 27607
  },
  {
    "c0": -78.6365891,
    "c1": 35.773754,
    "org": "Flanders Gallery",
    "category": "Arts and entertainment",
    "name": "Flanders Gallery",
    "city": "Raleigh",
    "address": "505 S Blount St",
    "zip": 27601
  },
  {
    "c0": -78.6366008,
    "c1": 35.7737509,
    "org": "Lump Gallery",
    "category": "Arts and entertainment",
    "name": "Lump Gallery",
    "city": "Raleigh",
    "address": "505 S Blount St",
    "zip": 27601
  },
  {
    "c0": -78.659875,
    "c1": 35.789615,
    "org": "Flying Biscuit Cafe",
    "category": "Food and drink",
    "name": "Flying Biscuit Cafe",
    "city": "Raleigh",
    "address": "2016 Clark Ave",
    "zip": 27605
  },
  {
    "c0": -78.6383917,
    "c1": 35.7978663,
    "org": "Castle Video & News",
    "category": "Shopping",
    "name": "Castle Video & News",
    "city": "Raleigh",
    "address": "1210 Capital Blvd",
    "zip": 27603
  },
  {
    "c0": -80.88787,
    "c1": 36.180389,
    "org": "Raffaldini Vineyards & Winery",
    "category": "Vineyard",
    "name": "Raffaldini Vineyards & Winery",
    "city": "Ronda",
    "address": "450 Groce Rd",
    "zip": 28670
  },
  {
    "c0": -79.175239,
    "c1": 35.472763,
    "org": "Sanford Video & News",
    "category": "Shopping",
    "name": "Sanford Video & News",
    "city": "Sanford",
    "address": "667 S Horner Blvd",
    "zip": 27330
  },
  {
    "c0": -79.319075,
    "c1": 35.946722,
    "org": "Haw River Farmhouse Ales",
    "category": "Brewery",
    "name": "Haw River Farmhouse Ales",
    "city": "Saxapahaw",
    "address": "1713 Saxapahaw-Bethlehem Church Rd",
    "zip": 27340
  },
  {
    "c0": -77.8941626,
    "c1": 34.2120907,
    "org": "Tazy's Burgers & Grill",
    "category": "Food and drink",
    "name": "Tazy's Burgers & Grill",
    "city": "Wilmington",
    "address": "4107 Oleander Dr",
    "zip": 28403
  },
  {
    "c0": -77.8972894,
    "c1": 34.2122278,
    "org": "Flaming Amy's Burrito Barn",
    "category": "Food and drink",
    "name": "Flaming Amy's Burrito Barn",
    "city": "Wilmington",
    "address": "4002 Oleander Dr",
    "zip": 28403
  },
  {
    "c0": -77.8893714,
    "c1": 34.1989755,
    "org": "Flaming Amy's Burrito Barn",
    "category": "Food and drink",
    "name": "Flaming Amy's Burrito Barn",
    "city": "Wilmington",
    "address": "4418 Shipyard Blvd",
    "zip": 28412
  },
  {
    "c0": -77.8771591,
    "c1": 34.310089,
    "org": "Flaming Amy's Burrito Barn",
    "category": "Food and drink",
    "name": "Flaming Amy's Burrito Barn",
    "city": "Wilmington",
    "address": "3224 N College Rd",
    "zip": 28405
  },
  {
    "c0": -77.8931457,
    "c1": 34.1770155,
    "org": "Aunt Kerry's Pet Stop",
    "category": "Pets",
    "name": "Aunt Kerry's Pet Stop",
    "city": "Wilmington",
    "address": "3600 S College Rd",
    "zip": 28412
  },
  {
    "c0": -77.8851221,
    "c1": 34.2224807,
    "org": "Trolly Stop Hotdogs",
    "category": "Food and drink",
    "name": "Trolly Stop Hotdogs",
    "city": "Wilmington",
    "address": "4502 Fountain Dr",
    "zip": 28403
  },
  {
    "c0": -77.8166111,
    "c1": 34.2738988,
    "org": "Fermental Beer & Wine",
    "category": "Food and drink",
    "name": "Fermental Beer & Wine",
    "city": "Wilmington",
    "address": "7250 Market St",
    "zip": 28411
  },
  {
    "c0": -80.2571979,
    "c1": 36.0950819,
    "org": "Club Snap",
    "category": "Food and drink",
    "name": "Club Snap",
    "city": "Winston-Salem",
    "address": "1001 Burke St",
    "zip": 27101
  },
  {
    "c0": -80.2507509,
    "c1": 36.0975563,
    "org": "Design Archives Vintage and Handmade Emporium",
    "category": "Shopping",
    "name": "Design Archives Vintage and Handmade Emporium",
    "city": "Winston-Salem",
    "address": "636 W 4th St",
    "zip": 27101
  },
  {
    "c0": -80.2685646,
    "c1": 36.0897955,
    "org": "Wake Forest Baptist Medical Center",
    "category": "Health and wellness",
    "name": "Wake Forest Baptist Medical Center",
    "city": "Winston-Salem",
    "address": "1 Medical Center Blvd",
    "zip": 27103
  },
  {
    "c0": -80.2779719,
    "c1": 36.1319172,
    "org": "Wake Forest University",
    "category": "Education",
    "name": "Wake Forest University",
    "city": "Winston-Salem",
    "address": "1834 Wake Forest Rd",
    "zip": 27106
  },
  {
    "c0": -78.6381787,
    "c1": 35.7795897,
    "org": "Raleigh Soapery",
    "category": "Shopping",
    "name": "Raleigh Soapery",
    "city": "",
    "address": "",
    "zip": ""
  }
]
